[{"OBJECT_NAME":"IRIDIUM 164","OBJECT_ID":"2018-061J","EPOCH":"2026-03-09T19:37:38.506656","MEAN_MOTION":14.34217471,"ECCENTRICITY":0.00023952,"INCLINATION":86.3912,"RA_OF_ASC_NODE":98.3356,"ARG_OF_PERICENTER":97.8473,"MEAN_ANOMALY":262.2995,"EPHEMERIS_TYPE":0,"CLASSIFICATION_TYPE":"U","NORAD_CAT_ID":43577,"ELEMENT_SET_NO":999,"REV_AT_EPOCH":39917,"BSTAR":-1.475216e-6,"MEAN_MOTION_DOT":1.6e-7,"MEAN_MOTION_DDOT":0},{"OBJECT_NAME":"COSMOS 1867 COOLANT","OBJECT_ID":"1987-060P","EPOCH":"2026-03-09T05:25:34.924224","MEAN_MOTION":14.33747015,"ECCENTRICITY":0.00153792,"INCLINATION":65.0088,"RA_OF_ASC_NODE":292.7291,"ARG_OF_PERICENTER":281.1638,"MEAN_ANOMALY":78.7719,"EPHEMERIS_TYPE":0,"CLASSIFICATION_TYPE":"U","NORAD_CAT_ID":39646,"ELEMENT_SET_NO":999,"REV_AT_EPOCH":62329,"BSTAR":0.00014550487,"MEAN_MOTION_DOT":3.05e-6,"MEAN_MOTION_DDOT":0}]
